{
  "type": "FeatureCollection",
  "name": "Issue #2 target area and demo endpoints",
  "bbox": [139.759, 35.681, 139.7675, 35.687],
  "project": {
    "decidedAt": "2026-08-23",
    "coordinateReferenceSystem": "OGC:CRS84",
    "coordinateOrder": "longitude, latitude",
    "approximateAreaSquareKilometers": 0.512,
    "timeZone": "Asia/Tokyo",
    "representativeDate": "2025-08-01",
    "timeSlices": [
      "08:00",
      "09:00",
      "10:00",
      "11:00",
      "12:00",
      "13:00",
      "14:00",
      "15:00",
      "16:00",
      "17:00"
    ]
  },
  "features": [
    {
      "type": "Feature",
      "id": "target-area-marunouchi-otemachi-v1",
      "properties": {
        "kind": "target-area",
        "name": "丸の内・大手町デモ対象範囲",
        "municipalityCode": "13101",
        "municipalityName": "東京都千代田区"
      },
      "geometry": {
        "type": "Polygon",
        "coordinates": [
          [
            [139.759, 35.681],
            [139.7675, 35.681],
            [139.7675, 35.687],
            [139.759, 35.687],
            [139.759, 35.681]
          ]
        ]
      }
    },
    {
      "type": "Feature",
      "id": "demo-origin-tokyo-station-marunouchi",
      "properties": {
        "kind": "demo-origin",
        "name": "東京駅丸の内中央広場側",
        "osmNodeId": "12615257648"
      },
      "geometry": {
        "type": "Point",
        "coordinates": [139.7653236, 35.681617]
      }
    },
    {
      "type": "Feature",
      "id": "demo-destination-wadakura-fountain-park",
      "properties": {
        "kind": "demo-destination",
        "name": "和田倉噴水公園内園路",
        "osmNodeId": "5500162103"
      },
      "geometry": {
        "type": "Point",
        "coordinates": [139.7608385, 35.683469]
      }
    }
  ]
}
